start=new Date('2023-03-04T00:00:00.000Z').valueOf();
sats=[{"PERIAPSIS":"546.086","SEMIMAJOR_AXIS":"6925.197","NORAD_CAT_ID":"48461","GP_ID":"227432567","EPOCH":"2023-03-03T18:41:16.194624","REF_FRAME":"TEME","EPHEMERIS_TYPE":"0","PERIOD":"95.589","APOAPSIS":"548.039","LAUNCH_DATE":"2021-05-09","CENTER_NAME":"EARTH","OBJECT_ID":"2021-040AK","MEAN_ELEMENT_THEORY":"SGP4","BSTAR":"0.00171360000000","MEAN_MOTION_DOT":"0.00025369","SITE":"AFETR","ELEMENT_SET_NO":"999","ARG_OF_PERICENTER":"77.2372","MEAN_MOTION":"15.06449309","COUNTRY_CODE":"US","MEAN_ANOMALY":"282.8774","RA_OF_ASC_NODE":"93.2906","REV_AT_EPOCH":"10048","TLE_LINE2":"2 48461  53.0516  93.2906 0001410  77.2372 282.8774 15.06449309100480","RCS_SIZE":"LARGE","OBJECT_NAME":"STARLINK-2693","FILE":"3850400","CLASSIFICATION_TYPE":"U","MEAN_MOTION_DDOT":"0.0000000000000","OBJECT_TYPE":"PAYLOAD","TIME_SYSTEM":"UTC","ECCENTRICITY":"0.00014100","TLE_LINE1":"1 48461U 21040AK  23062.77865966  .00025369  00000-0  17136-2 0  9992","INCLINATION":"53.0516","DECAY_DATE":null},{"OBJECT_TYPE":"PAYLOAD","TIME_SYSTEM":"UTC","CLASSIFICATION_TYPE":"U","MEAN_MOTION_DDOT":"0.0000000000000","INCLINATION":"53.0525","TLE_LINE1":"1 48462U 21040AL  23062.82797932  .00032036  00000-0  21554-2 0  9994","DECAY_DATE":null,"ECCENTRICITY":"0.00010910","MEAN_ANOMALY":"248.7225","RA_OF_ASC_NODE":"98.3466","COUNTRY_CODE":"US","OBJECT_NAME":"STARLINK-2683","FILE":"3850400","TLE_LINE2":"2 48462  53.0525  98.3466 0001091 111.3881 248.7225 15.06476864100419","RCS_SIZE":"LARGE","REV_AT_EPOCH":"10041","SITE":"AFETR","BSTAR":"0.00215540000000","MEAN_ELEMENT_THEORY":"SGP4","MEAN_MOTION_DOT":"0.00032036","CENTER_NAME":"EARTH","OBJECT_ID":"2021-040AL","MEAN_MOTION":"15.06476864","ARG_OF_PERICENTER":"111.3881","ELEMENT_SET_NO":"999","GP_ID":"227433319","EPOCH":"2023-03-03T19:52:17.413248","SEMIMAJOR_AXIS":"6925.113","NORAD_CAT_ID":"48462","PERIAPSIS":"546.222","LAUNCH_DATE":"2021-05-09","APOAPSIS":"547.734","PERIOD":"95.587","EPHEMERIS_TYPE":"0","REF_FRAME":"TEME"},{"SITE":"AFETR","MEAN_MOTION_DOT":"0.00009455","BSTAR":"0.00065218000000","MEAN_ELEMENT_THEORY":"SGP4","OBJECT_ID":"2021-040AM","CENTER_NAME":"EARTH","MEAN_MOTION":"15.06432574","ARG_OF_PERICENTER":"92.4331","ELEMENT_SET_NO":"999","EPOCH":"2023-03-03T20:01:31.056672","GP_ID":"227433070","NORAD_CAT_ID":"48463","SEMIMAJOR_AXIS":"6925.249","PERIAPSIS":"546.354","LAUNCH_DATE":"2021-05-09","PERIOD":"95.590","APOAPSIS":"547.873","EPHEMERIS_TYPE":"0","REF_FRAME":"TEME","TIME_SYSTEM":"UTC","OBJECT_TYPE":"PAYLOAD","MEAN_MOTION_DDOT":"0.0000000000000","CLASSIFICATION_TYPE":"U","DECAY_DATE":null,"TLE_LINE1":"1 48463U 21040AM  23062.83438723  .00009455  00000-0  65218-3 0  9991","INCLINATION":"53.0516","ECCENTRICITY":"0.00010970","RA_OF_ASC_NODE":"98.0393","MEAN_ANOMALY":"267.6784","COUNTRY_CODE":"US","OBJECT_NAME":"STARLINK-2689","FILE":"3850400","RCS_SIZE":"LARGE","TLE_LINE2":"2 48463  53.0516  98.0393 0001097  92.4331 267.6784 15.06432574100422","REV_AT_EPOCH":"10042"},{"OBJECT_NAME":"STARLINK-2686","FILE":"3850400","RCS_SIZE":"LARGE","TLE_LINE2":"2 48464  53.0523  98.1341 0000471 198.2976 161.7996 15.06431275100415","REV_AT_EPOCH":"10041","MEAN_ANOMALY":"161.7996","RA_OF_ASC_NODE":"98.1341","COUNTRY_CODE":"US","INCLINATION":"53.0523","TLE_LINE1":"1 48464U 21040AN  23062.81320817  .00004675  00000-0  33221-3 0  9992","DECAY_DATE":null,"ECCENTRICITY":"0.00004710","OBJECT_TYPE":"PAYLOAD","TIME_SYSTEM":"UTC","CLASSIFICATION_TYPE":"U","MEAN_MOTION_DDOT":"0.0000000000000","LAUNCH_DATE":"2021-05-09","PERIOD":"95.590","APOAPSIS":"547.444","EPHEMERIS_TYPE":"0","REF_FRAME":"TEME","GP_ID":"227431817","EPOCH":"2023-03-03T19:31:01.185888","SEMIMAJOR_AXIS":"6925.253","NORAD_CAT_ID":"48464","PERIAPSIS":"546.792","MEAN_MOTION":"15.06431275","ARG_OF_PERICENTER":"198.2976","ELEMENT_SET_NO":"999","SITE":"AFETR","MEAN_ELEMENT_THEORY":"SGP4","BSTAR":"0.00033221000000","MEAN_MOTION_DOT":"0.00004675","CENTER_NAME":"EARTH","OBJECT_ID":"2021-040AN"},{"SEMIMAJOR_AXIS":"6925.325","NORAD_CAT_ID":"48465","GP_ID":"227432067","EPOCH":"2023-03-03T19:46:57.392832","PERIAPSIS":"546.191","APOAPSIS":"548.190","PERIOD":"95.592","LAUNCH_DATE":"2021-05-09","REF_FRAME":"TEME","EPHEMERIS_TYPE":"0","SITE":"AFETR","CENTER_NAME":"EARTH","OBJECT_ID":"2021-040AP","BSTAR":"0.00269090000000","MEAN_ELEMENT_THEORY":"SGP4","MEAN_MOTION_DOT":"0.00040036","MEAN_MOTION":"15.06407613","ELEMENT_SET_NO":"999","ARG_OF_PERICENTER":"110.3266","COUNTRY_CODE":"US","MEAN_ANOMALY":"249.7878","RA_OF_ASC_NODE":"98.0811","TLE_LINE2":"2 48465  53.0572  98.0811 0001443 110.3266 249.7878 15.06407613100424","RCS_SIZE":"LARGE","OBJECT_NAME":"STARLINK-2681","FILE":"3850400","REV_AT_EPOCH":"10042","OBJECT_TYPE":"PAYLOAD","TIME_SYSTEM":"UTC","CLASSIFICATION_TYPE":"U","MEAN_MOTION_DDOT":"0.0000000000000","ECCENTRICITY":"0.00014430","INCLINATION":"53.0572","TLE_LINE1":"1 48465U 21040AP  23062.82427538  .00040036  00000-0  26909-2 0  9997","DECAY_DATE":null},{"COUNTRY_CODE":"US","MEAN_ANOMALY":"283.5270","RA_OF_ASC_NODE":"98.1514","TLE_LINE2":"2 48466  53.0522  98.1514 0001540  76.5891 283.5270 15.06429723100424","RCS_SIZE":"LARGE","FILE":"3850400","OBJECT_NAME":"STARLINK-2687","REV_AT_EPOCH":"10042","OBJECT_TYPE":"PAYLOAD","TIME_SYSTEM":"UTC","CLASSIFICATION_TYPE":"U","MEAN_MOTION_DDOT":"0.0000000000000","ECCENTRICITY":"0.00015400","TLE_LINE1":"1 48466U 21040AQ  23062.80952770  .00026836  00000-0  18122-2 0  9997","INCLINATION":"53.0522","DECAY_DATE":null,"SEMIMAJOR_AXIS":"6925.257","NORAD_CAT_ID":"48466","GP_ID":"227432820","EPOCH":"2023-03-03T19:25:43.193280","PERIAPSIS":"546.056","PERIOD":"95.590","APOAPSIS":"548.189","LAUNCH_DATE":"2021-05-09","REF_FRAME":"TEME","EPHEMERIS_TYPE":"0","SITE":"AFETR","CENTER_NAME":"EARTH","OBJECT_ID":"2021-040AQ","BSTAR":"0.00181220000000","MEAN_ELEMENT_THEORY":"SGP4","MEAN_MOTION_DOT":"0.00026836","MEAN_MOTION":"15.06429723","ELEMENT_SET_NO":"999","ARG_OF_PERICENTER":"76.5891"},{"DECAY_DATE":null,"INCLINATION":"53.0522","TLE_LINE1":"1 48467U 21040AR  23062.56994350  .00033957  00000-0  22834-2 0  9998","ECCENTRICITY":"0.00013550","MEAN_MOTION_DDOT":"0.0000000000000","CLASSIFICATION_TYPE":"U","TIME_SYSTEM":"UTC","OBJECT_TYPE":"PAYLOAD","REV_AT_EPOCH":"10038","OBJECT_NAME":"STARLINK-2659","FILE":"3850400","RCS_SIZE":"LARGE","TLE_LINE2":"2 48467  53.0522  99.2259 0001355  93.5629 266.5515 15.06468077100388","RA_OF_ASC_NODE":"99.2259","MEAN_ANOMALY":"266.5515","COUNTRY_CODE":"US","ARG_OF_PERICENTER":"93.5629","ELEMENT_SET_NO":"999","MEAN_MOTION":"15.06468077","MEAN_MOTION_DOT":"0.00033957","BSTAR":"0.00228340000000","MEAN_ELEMENT_THEORY":"SGP4","OBJECT_ID":"2021-040AR","CENTER_NAME":"EARTH","SITE":"AFETR","EPHEMERIS_TYPE":"0","REF_FRAME":"TEME","LAUNCH_DATE":"2021-05-09","APOAPSIS":"547.943","PERIOD":"95.588","PERIAPSIS":"546.067","EPOCH":"2023-03-03T13:40:43.118400","GP_ID":"227433570","NORAD_CAT_ID":"48467","SEMIMAJOR_AXIS":"6925.140"},{"SITE":"AFETR","BSTAR":"-0.00006497500000","MEAN_ELEMENT_THEORY":"SGP4","MEAN_MOTION_DOT":"-0.00001250","CENTER_NAME":"EARTH","OBJECT_ID":"2021-040AS","MEAN_MOTION":"15.06413989","ARG_OF_PERICENTER":"78.9013","ELEMENT_SET_NO":"999","GP_ID":"227432317","EPOCH":"2023-03-03T19:36:20.286144","SEMIMAJOR_AXIS":"6925.306","NORAD_CAT_ID":"48468","PERIAPSIS":"546.137","LAUNCH_DATE":"2021-05-09","APOAPSIS":"548.204","PERIOD":"95.591","EPHEMERIS_TYPE":"0","REF_FRAME":"TEME","OBJECT_TYPE":"PAYLOAD","TIME_SYSTEM":"UTC","CLASSIFICATION_TYPE":"U","MEAN_MOTION_DDOT":"0.0000000000000","TLE_LINE1":"1 48468U 21040AS  23062.81690146 -.00001250  00000-0 -64975-4 0  9990","INCLINATION":"53.0512","DECAY_DATE":null,"ECCENTRICITY":"0.00014920","MEAN_ANOMALY":"281.2143","RA_OF_ASC_NODE":"98.1180","COUNTRY_CODE":"US","FILE":"3850400","OBJECT_NAME":"STARLINK-2685","TLE_LINE2":"2 48468  53.0512  98.1180 0001492  78.9013 281.2143 15.06413989100423","RCS_SIZE":"LARGE","REV_AT_EPOCH":"10042"},{"OBJECT_ID":"2021-040AT","CENTER_NAME":"EARTH","MEAN_MOTION_DOT":"0.00009736","BSTAR":"0.00067149000000","MEAN_ELEMENT_THEORY":"SGP4","SITE":"AFETR","ELEMENT_SET_NO":"999","ARG_OF_PERICENTER":"98.3812","MEAN_MOTION":"15.06407377","PERIAPSIS":"545.583","NORAD_CAT_ID":"48469","SEMIMAJOR_AXIS":"6925.326","EPOCH":"2023-03-03T19:57:34.558272","GP_ID":"227432568","REF_FRAME":"TEME","EPHEMERIS_TYPE":"0","APOAPSIS":"548.799","PERIOD":"95.592","LAUNCH_DATE":"2021-05-09","MEAN_MOTION_DDOT":"0.0000000000000","CLASSIFICATION_TYPE":"U","TIME_SYSTEM":"UTC","OBJECT_TYPE":"PAYLOAD","ECCENTRICITY":"0.00023220","DECAY_DATE":null,"TLE_LINE1":"1 48469U 21040AT  23062.83164998  .00009736  00000-0  67149-3 0  9994","INCLINATION":"53.0564","COUNTRY_CODE":"US","RA_OF_ASC_NODE":"98.0476","MEAN_ANOMALY":"261.7440","REV_AT_EPOCH":"10042","TLE_LINE2":"2 48469  53.0564  98.0476 0002322  98.3812 261.7440 15.06407377100421","RCS_SIZE":"LARGE","FILE":"3850400","OBJECT_NAME":"STARLINK-2661"},{"ECCENTRICITY":"0.00015190","DECAY_DATE":null,"INCLINATION":"53.0525","TLE_LINE1":"1 48470U 21040AU  23062.82701172  .00025264  00000-0  17068-2 0  9994","TIME_SYSTEM":"UTC","OBJECT_TYPE":"PAYLOAD","MEAN_MOTION_DDOT":"0.0000000000000","CLASSIFICATION_TYPE":"U","RCS_SIZE":"LARGE","TLE_LINE2":"2 48470  53.0525  98.0616 0001519  81.9325 278.1836 15.06446021100419","OBJECT_NAME":"STARLINK-2675","FILE":"3850400","REV_AT_EPOCH":"10041","COUNTRY_CODE":"US","RA_OF_ASC_NODE":"98.0616","MEAN_ANOMALY":"278.1836","MEAN_MOTION":"15.06446021","ELEMENT_SET_NO":"999","ARG_OF_PERICENTER":"81.9325","SITE":"AFETR","OBJECT_ID":"2021-040AU","CENTER_NAME":"EARTH","MEAN_MOTION_DOT":"0.00025264","BSTAR":"0.00170680000000","MEAN_ELEMENT_THEORY":"SGP4","APOAPSIS":"548.124","PERIOD":"95.589","LAUNCH_DATE":"2021-05-09","REF_FRAME":"TEME","EPHEMERIS_TYPE":"0","NORAD_CAT_ID":"48470","SEMIMAJOR_AXIS":"6925.208","EPOCH":"2023-03-03T19:50:53.812608","GP_ID":"227433320","PERIAPSIS":"546.021"}];
